ATLAS CENTAUR R/B       
1 06155U 72065B   26086.73341951  .00001273  00000+0  17628-3 0  9991
2 06155  35.0008 200.0049 0033290 163.0678 197.1140 14.77736218843934
SL-8 R/B                
1 08459U 75112B   26086.79710409  .00000210  00000+0  77652-4 0  9994
2 08459  74.0630 345.6057 0014538  71.3603 288.9128 14.38213947634473
SL-3 R/B                
1 10114U 77057B   26086.78023073  .00014102  00000+0  29069-3 0  9991
2 10114  97.5796 259.5070 0006693 208.9131 151.1747 15.45997331671128
SEASAT 1                
1 10967U 78064A   26086.82666097  .00000240  00000+0  10560-3 0  9994
2 10967 108.0078 163.5556 0002639 276.7982  83.2863 14.46174711509135
SL-14 R/B               
1 11267U 79011B   26086.68921642  .00000669  00000+0  63489-4 0  9999
2 11267  82.5208  79.4852 0016055   3.4286 356.7040 14.91930297531468
SL-8 R/B                
1 11574U 79089B   26086.36273591  .00000288  00000+0  95069-4 0  9999
2 11574  74.0683  58.3251 0016808 228.8058 131.1650 14.42360871438657
SL-14 R/B               
1 11672U 80005B   26086.84832405  .00000560  00000+0  53994-4 0  9990
2 11672  82.5114 290.0076 0017213 101.8270 258.4881 14.90950195479196
SL-8 R/B                
1 12139U 81003B   26086.54635690  .00022551  00000+0  56584-3 0  9993
2 12139  82.9338 273.5020 0260952 116.4931 246.3319 15.11745131317377
SL-3 R/B                
1 12465U 81046B   26086.82173138  .00011744  00000+0  26928-3 0  9998
2 12465  81.2285 267.9599 0018268 318.1479  41.8366 15.42427312441223
SL-3 R/B                
1 12904U 81103B   26086.79211131  .00005022  00000+0  22117-3 0  9990
2 12904  81.1604 192.1971 0012699 221.6352 138.3913 15.21584384975983
SL-3 R/B                
1 13068U 82013B   26086.85863221  .00003360  00000+0  14420-3 0  9994
2 13068  81.1740 139.4747 0023462 117.7874 242.5741 15.22175888407113
SL-3 R/B                
1 13154U 82039B   26086.81196203  .00002640  00000+0  15885-3 0  9999
2 13154  81.1568 195.0663 0028696 264.5895  95.2056 15.10179186384376
