CCSDS_OMM_VERS = 2.0
CREATION_DATE  = 
ORIGINATOR     = 

OBJECT_NAME    = ATLAS CENTAUR R/B
OBJECT_ID      = 1972-065B
CENTER_NAME    = EARTH
REF_FRAME      = TEME
TIME_SYSTEM    = UTC
MEAN_ELEMENT_THEORY = SGP/SGP4

EPOCH          = 2026-03-27T17:36:07.445664
MEAN_MOTION    = 14.77736218
ECCENTRICITY   = .003329
INCLINATION    = 35.0008
RA_OF_ASC_NODE = 200.0049
ARG_OF_PERICENTER = 163.0678
MEAN_ANOMALY   = 197.1140

EPHEMERIS_TYPE = 0
CLASSIFICATION_TYPE = U
NORAD_CAT_ID   = 6155
ELEMENT_SET_NO = 999
REV_AT_EPOCH   = 84393
BSTAR          = .17628E-3
MEAN_MOTION_DOT = .1273E-4
MEAN_MOTION_DDOT = 0

CCSDS_OMM_VERS = 2.0
CREATION_DATE  = 
ORIGINATOR     = 

OBJECT_NAME    = SL-8 R/B
OBJECT_ID      = 1975-112B
CENTER_NAME    = EARTH
REF_FRAME      = TEME
TIME_SYSTEM    = UTC
MEAN_ELEMENT_THEORY = SGP/SGP4

EPOCH          = 2026-03-27T19:07:49.793376
MEAN_MOTION    = 14.38213947
ECCENTRICITY   = .0014538
INCLINATION    = 74.0630
RA_OF_ASC_NODE = 345.6057
ARG_OF_PERICENTER = 71.3603
MEAN_ANOMALY   = 288.9128

EPHEMERIS_TYPE = 0
CLASSIFICATION_TYPE = U
NORAD_CAT_ID   = 8459
ELEMENT_SET_NO = 999
REV_AT_EPOCH   = 63447
BSTAR          = .77652E-4
MEAN_MOTION_DOT = .21E-5
MEAN_MOTION_DDOT = 0

CCSDS_OMM_VERS = 2.0
CREATION_DATE  = 
ORIGINATOR     = 

OBJECT_NAME    = SL-3 R/B
OBJECT_ID      = 1977-057B
CENTER_NAME    = EARTH
REF_FRAME      = TEME
TIME_SYSTEM    = UTC
MEAN_ELEMENT_THEORY = SGP/SGP4

EPOCH          = 2026-03-27T18:43:31.935072
MEAN_MOTION    = 15.45997331
ECCENTRICITY   = .0006693
INCLINATION    = 97.5796
RA_OF_ASC_NODE = 259.5070
ARG_OF_PERICENTER = 208.9131
MEAN_ANOMALY   = 151.1747

EPHEMERIS_TYPE = 0
CLASSIFICATION_TYPE = U
NORAD_CAT_ID   = 10114
ELEMENT_SET_NO = 999
REV_AT_EPOCH   = 67112
BSTAR          = .29069E-3
MEAN_MOTION_DOT = .14102E-3
MEAN_MOTION_DDOT = 0

CCSDS_OMM_VERS = 2.0
CREATION_DATE  = 
ORIGINATOR     = 

OBJECT_NAME    = SEASAT 1
OBJECT_ID      = 1978-064A
CENTER_NAME    = EARTH
REF_FRAME      = TEME
TIME_SYSTEM    = UTC
MEAN_ELEMENT_THEORY = SGP/SGP4

EPOCH          = 2026-03-27T19:50:23.507808
MEAN_MOTION    = 14.46174711
ECCENTRICITY   = .0002639
INCLINATION    = 108.0078
RA_OF_ASC_NODE = 163.5556
ARG_OF_PERICENTER = 276.7982
MEAN_ANOMALY   = 83.2863

EPHEMERIS_TYPE = 0
CLASSIFICATION_TYPE = U
NORAD_CAT_ID   = 10967
ELEMENT_SET_NO = 999
REV_AT_EPOCH   = 50913
BSTAR          = .1056E-3
MEAN_MOTION_DOT = .24E-5
MEAN_MOTION_DDOT = 0

CCSDS_OMM_VERS = 2.0
CREATION_DATE  = 
ORIGINATOR     = 

OBJECT_NAME    = SL-14 R/B
OBJECT_ID      = 1979-011B
CENTER_NAME    = EARTH
REF_FRAME      = TEME
TIME_SYSTEM    = UTC
MEAN_ELEMENT_THEORY = SGP/SGP4

EPOCH          = 2026-03-27T16:32:28.298688
MEAN_MOTION    = 14.91930297
ECCENTRICITY   = .0016055
INCLINATION    = 82.5208
RA_OF_ASC_NODE = 79.4852
ARG_OF_PERICENTER = 3.4286
MEAN_ANOMALY   = 356.7040

EPHEMERIS_TYPE = 0
CLASSIFICATION_TYPE = U
NORAD_CAT_ID   = 11267
ELEMENT_SET_NO = 999
REV_AT_EPOCH   = 53146
BSTAR          = .63489E-4
MEAN_MOTION_DOT = .669E-5
MEAN_MOTION_DDOT = 0

CCSDS_OMM_VERS = 2.0
CREATION_DATE  = 
ORIGINATOR     = 

OBJECT_NAME    = SL-8 R/B
OBJECT_ID      = 1979-089B
CENTER_NAME    = EARTH
REF_FRAME      = TEME
TIME_SYSTEM    = UTC
MEAN_ELEMENT_THEORY = SGP/SGP4

EPOCH          = 2026-03-27T08:42:20.382624
MEAN_MOTION    = 14.42360871
ECCENTRICITY   = .0016808
INCLINATION    = 74.0683
RA_OF_ASC_NODE = 58.3251
ARG_OF_PERICENTER = 228.8058
MEAN_ANOMALY   = 131.1650

EPHEMERIS_TYPE = 0
CLASSIFICATION_TYPE = U
NORAD_CAT_ID   = 11574
ELEMENT_SET_NO = 999
REV_AT_EPOCH   = 43865
BSTAR          = .95069E-4
MEAN_MOTION_DOT = .288E-5
MEAN_MOTION_DDOT = 0

CCSDS_OMM_VERS = 2.0
CREATION_DATE  = 
ORIGINATOR     = 

OBJECT_NAME    = SL-14 R/B
OBJECT_ID      = 1980-005B
CENTER_NAME    = EARTH
REF_FRAME      = TEME
TIME_SYSTEM    = UTC
MEAN_ELEMENT_THEORY = SGP/SGP4

EPOCH          = 2026-03-27T20:21:35.197920
MEAN_MOTION    = 14.90950195
ECCENTRICITY   = .0017213
INCLINATION    = 82.5114
RA_OF_ASC_NODE = 290.0076
ARG_OF_PERICENTER = 101.8270
MEAN_ANOMALY   = 258.4881

EPHEMERIS_TYPE = 0
CLASSIFICATION_TYPE = U
NORAD_CAT_ID   = 11672
ELEMENT_SET_NO = 999
REV_AT_EPOCH   = 47919
BSTAR          = .53994E-4
MEAN_MOTION_DOT = .56E-5
MEAN_MOTION_DDOT = 0

CCSDS_OMM_VERS = 2.0
CREATION_DATE  = 
ORIGINATOR     = 

OBJECT_NAME    = SL-8 R/B
OBJECT_ID      = 1981-003B
CENTER_NAME    = EARTH
REF_FRAME      = TEME
TIME_SYSTEM    = UTC
MEAN_ELEMENT_THEORY = SGP/SGP4

EPOCH          = 2026-03-27T13:06:45.236160
MEAN_MOTION    = 15.11745131
ECCENTRICITY   = .0260952
INCLINATION    = 82.9338
RA_OF_ASC_NODE = 273.5020
ARG_OF_PERICENTER = 116.4931
MEAN_ANOMALY   = 246.3319

EPHEMERIS_TYPE = 0
CLASSIFICATION_TYPE = U
NORAD_CAT_ID   = 12139
ELEMENT_SET_NO = 999
REV_AT_EPOCH   = 31737
BSTAR          = .56584E-3
MEAN_MOTION_DOT = .22551E-3
MEAN_MOTION_DDOT = 0

CCSDS_OMM_VERS = 2.0
CREATION_DATE  = 
ORIGINATOR     = 

OBJECT_NAME    = SL-3 R/B
OBJECT_ID      = 1981-046B
CENTER_NAME    = EARTH
REF_FRAME      = TEME
TIME_SYSTEM    = UTC
MEAN_ELEMENT_THEORY = SGP/SGP4

EPOCH          = 2026-03-27T19:43:17.591232
MEAN_MOTION    = 15.42427312
ECCENTRICITY   = .0018268
INCLINATION    = 81.2285
RA_OF_ASC_NODE = 267.9599
ARG_OF_PERICENTER = 318.1479
MEAN_ANOMALY   = 41.8366

EPHEMERIS_TYPE = 0
CLASSIFICATION_TYPE = U
NORAD_CAT_ID   = 12465
ELEMENT_SET_NO = 999
REV_AT_EPOCH   = 44122
BSTAR          = .26928E-3
MEAN_MOTION_DOT = .11744E-3
MEAN_MOTION_DDOT = 0

CCSDS_OMM_VERS = 2.0
CREATION_DATE  = 
ORIGINATOR     = 

OBJECT_NAME    = SL-3 R/B
OBJECT_ID      = 1981-103B
CENTER_NAME    = EARTH
REF_FRAME      = TEME
TIME_SYSTEM    = UTC
MEAN_ELEMENT_THEORY = SGP/SGP4

EPOCH          = 2026-03-27T19:00:38.417184
MEAN_MOTION    = 15.21584384
ECCENTRICITY   = .0012699
INCLINATION    = 81.1604
RA_OF_ASC_NODE = 192.1971
ARG_OF_PERICENTER = 221.6352
MEAN_ANOMALY   = 138.3913

EPHEMERIS_TYPE = 0
CLASSIFICATION_TYPE = U
NORAD_CAT_ID   = 12904
ELEMENT_SET_NO = 999
REV_AT_EPOCH   = 97598
BSTAR          = .22117E-3
MEAN_MOTION_DOT = .5022E-4
MEAN_MOTION_DDOT = 0

CCSDS_OMM_VERS = 2.0
CREATION_DATE  = 
ORIGINATOR     = 

OBJECT_NAME    = SL-3 R/B
OBJECT_ID      = 1982-013B
CENTER_NAME    = EARTH
REF_FRAME      = TEME
TIME_SYSTEM    = UTC
MEAN_ELEMENT_THEORY = SGP/SGP4

EPOCH          = 2026-03-27T20:36:25.822944
MEAN_MOTION    = 15.22175888
ECCENTRICITY   = .0023462
INCLINATION    = 81.1740
RA_OF_ASC_NODE = 139.4747
ARG_OF_PERICENTER = 117.7874
MEAN_ANOMALY   = 242.5741

EPHEMERIS_TYPE = 0
CLASSIFICATION_TYPE = U
NORAD_CAT_ID   = 13068
ELEMENT_SET_NO = 999
REV_AT_EPOCH   = 40711
BSTAR          = .1442E-3
MEAN_MOTION_DOT = .336E-4
MEAN_MOTION_DDOT = 0

CCSDS_OMM_VERS = 2.0
CREATION_DATE  = 
ORIGINATOR     = 

OBJECT_NAME    = SL-3 R/B
OBJECT_ID      = 1982-039B
CENTER_NAME    = EARTH
REF_FRAME      = TEME
TIME_SYSTEM    = UTC
MEAN_ELEMENT_THEORY = SGP/SGP4

EPOCH          = 2026-03-27T19:29:13.519392
MEAN_MOTION    = 15.10179186
ECCENTRICITY   = .0028696
INCLINATION    = 81.1568
RA_OF_ASC_NODE = 195.0663
ARG_OF_PERICENTER = 264.5895
MEAN_ANOMALY   = 95.2056

EPHEMERIS_TYPE = 0
CLASSIFICATION_TYPE = U
NORAD_CAT_ID   = 13154
ELEMENT_SET_NO = 999
REV_AT_EPOCH   = 38437
BSTAR          = .15885E-3
MEAN_MOTION_DOT = .264E-4
MEAN_MOTION_DDOT = 0

